start=new Date('2021-12-10T00:00:00.000Z').valueOf();
sats=[{"ARG_OF_PERICENTER":"74.1562","ECCENTRICITY":"0.00021230","SITE":"AFETR","TLE_LINE1":"1 48697U 21044BM  21343.74876171  .00000199  00000-0  32294-4 0  9992","CENTER_NAME":"EARTH","TLE_LINE2":"2 48697  53.0555 214.0602 0002123  74.1562 285.9661 15.06386248 30369","REV_AT_EPOCH":"3036","DECAY_DATE":null,"EPOCH":"2021-12-09T17:58:13.011744","PERIOD":"95.593","EPHEMERIS_TYPE":"0","BSTAR":"0.00003229400000","CLASSIFICATION_TYPE":"U","GP_ID":"191401134","ELEMENT_SET_NO":"999","TIME_SYSTEM":"UTC","OBJECT_ID":"2021-044BM","LAUNCH_DATE":"2021-05-26","MEAN_MOTION_DOT":"0.00000199","MEAN_ANOMALY":"285.9661","OBJECT_TYPE":"PAYLOAD","INCLINATION":"53.0555","OBJECT_NAME":"STARLINK-2715","APOAPSIS":"548.726","PERIAPSIS":"545.785","REF_FRAME":"TEME","SEMIMAJOR_AXIS":"6925.391","MEAN_ELEMENT_THEORY":"SGP4","NORAD_CAT_ID":"48697","FILE":"3236488","MEAN_MOTION_DDOT":"0.0000000000000","RA_OF_ASC_NODE":"214.0602","COUNTRY_CODE":"US","RCS_SIZE":"LARGE","MEAN_MOTION":"15.06386248"},{"OBJECT_ID":"2021-059A","LAUNCH_DATE":"2021-06-30","TIME_SYSTEM":"UTC","MEAN_MOTION_DOT":"-0.00000479","GP_ID":"191400255","ELEMENT_SET_NO":"999","BSTAR":"-0.00002150000000","CLASSIFICATION_TYPE":"U","EPOCH":"2021-12-09T20:04:35.606208","PERIOD":"94.988","EPHEMERIS_TYPE":"0","ECCENTRICITY":"0.00070860","ARG_OF_PERICENTER":"111.9322","DECAY_DATE":null,"SITE":"AFETR","TLE_LINE1":"1 48879U 21059A   21343.83652322 -.00000479  00000-0 -21500-4 0  9991","CENTER_NAME":"EARTH","TLE_LINE2":"2 48879  97.5273 111.0782 0007086 111.9322 248.2665 15.15980735 25803","REV_AT_EPOCH":"2580","COUNTRY_CODE":"US","MEAN_MOTION":"15.15980735","RCS_SIZE":"LARGE","FILE":"3236488","NORAD_CAT_ID":"48879","MEAN_MOTION_DDOT":"0.0000000000000","RA_OF_ASC_NODE":"111.0782","REF_FRAME":"TEME","MEAN_ELEMENT_THEORY":"SGP4","SEMIMAJOR_AXIS":"6896.140","MEAN_ANOMALY":"248.2665","OBJECT_TYPE":"PAYLOAD","PERIAPSIS":"513.118","APOAPSIS":"522.891","OBJECT_NAME":"STARLINK-3003","INCLINATION":"97.5273"},{"RA_OF_ASC_NODE":"111.0833","MEAN_MOTION_DDOT":"0.0000000000000","NORAD_CAT_ID":"48880","FILE":"3236488","RCS_SIZE":"LARGE","MEAN_MOTION":"15.15969604","COUNTRY_CODE":"US","PERIAPSIS":"515.461","APOAPSIS":"520.616","INCLINATION":"97.5263","OBJECT_NAME":"STARLINK-3004","OBJECT_TYPE":"PAYLOAD","MEAN_ANOMALY":"191.9424","MEAN_ELEMENT_THEORY":"SGP4","SEMIMAJOR_AXIS":"6896.173","REF_FRAME":"TEME","ELEMENT_SET_NO":"999","GP_ID":"191400076","CLASSIFICATION_TYPE":"U","BSTAR":"0.00003208000000","MEAN_MOTION_DOT":"0.00000549","LAUNCH_DATE":"2021-06-30","OBJECT_ID":"2021-059B","TIME_SYSTEM":"UTC","DECAY_DATE":null,"REV_AT_EPOCH":"2580","TLE_LINE2":"2 48880  97.5263 111.0833 0003738 168.1897 191.9424 15.15969604 25801","CENTER_NAME":"EARTH","SITE":"AFETR","TLE_LINE1":"1 48880U 21059B   21343.83293546  .00000549  00000-0  32080-4 0  9993","ECCENTRICITY":"0.00037380","ARG_OF_PERICENTER":"168.1897","EPHEMERIS_TYPE":"0","EPOCH":"2021-12-09T19:59:25.623744","PERIOD":"94.989"},{"COUNTRY_CODE":"US","MEAN_MOTION":"15.15968346","RCS_SIZE":"LARGE","NORAD_CAT_ID":"48881","FILE":"3236488","MEAN_MOTION_DDOT":"0.0000000000000","RA_OF_ASC_NODE":"111.0931","REF_FRAME":"TEME","SEMIMAJOR_AXIS":"6896.177","MEAN_ELEMENT_THEORY":"SGP4","OBJECT_TYPE":"PAYLOAD","MEAN_ANOMALY":"213.7224","OBJECT_NAME":"STARLINK-3005","INCLINATION":"97.5268","PERIAPSIS":"515.091","APOAPSIS":"520.993","TIME_SYSTEM":"UTC","OBJECT_ID":"2021-059C","LAUNCH_DATE":"2021-06-30","MEAN_MOTION_DOT":"-0.00000051","BSTAR":"0.00000080476000","CLASSIFICATION_TYPE":"U","GP_ID":"191400975","ELEMENT_SET_NO":"999","PERIOD":"94.989","EPOCH":"2021-12-09T20:01:30.889056","EPHEMERIS_TYPE":"0","ARG_OF_PERICENTER":"146.4281","ECCENTRICITY":"0.00042790","TLE_LINE1":"1 48881U 21059C   21343.83438529 -.00000051  00000-0  80476-6 0  9999","SITE":"AFETR","TLE_LINE2":"2 48881  97.5268 111.0931 0004279 146.4281 213.7224 15.15968346 25806","CENTER_NAME":"EARTH","REV_AT_EPOCH":"2580","DECAY_DATE":null},{"RCS_SIZE":"LARGE","MEAN_MOTION":"15.69759859","COUNTRY_CODE":"US","RA_OF_ASC_NODE":"242.9322","MEAN_MOTION_DDOT":"0.0000000000000","FILE":"3236488","NORAD_CAT_ID":"49131","SEMIMAJOR_AXIS":"6737.721","MEAN_ELEMENT_THEORY":"SGP4","REF_FRAME":"TEME","OBJECT_NAME":"STARLINK-3096","INCLINATION":"69.9977","APOAPSIS":"361.709","PERIAPSIS":"357.463","OBJECT_TYPE":"PAYLOAD","MEAN_ANOMALY":"74.7544","MEAN_MOTION_DOT":"-0.00045545","TIME_SYSTEM":"UTC","OBJECT_ID":"2021-082B","LAUNCH_DATE":"2021-09-14","CLASSIFICATION_TYPE":"U","BSTAR":"-0.00038166000000","ELEMENT_SET_NO":"999","GP_ID":"191401004","EPHEMERIS_TYPE":"0","EPOCH":"2021-12-09T22:00:00.999936","PERIOD":"91.734","TLE_LINE2":"2 49131  69.9977 242.9322 0003151 270.4644  74.7544 15.69759859  3679","CENTER_NAME":"EARTH","REV_AT_EPOCH":"367","TLE_LINE1":"1 49131U 21082B   21343.91667824 -.00045545  00000-0 -38166-3 0  9999","SITE":"AFWTR","DECAY_DATE":null,"ARG_OF_PERICENTER":"270.4644","ECCENTRICITY":"0.00031510"},{"NORAD_CAT_ID":"49132","FILE":"3236488","MEAN_MOTION_DDOT":"0.0000000000000","RA_OF_ASC_NODE":"245.8982","COUNTRY_CODE":"US","MEAN_MOTION":"15.28329923","RCS_SIZE":"LARGE","OBJECT_TYPE":"PAYLOAD","MEAN_ANOMALY":"74.5448","INCLINATION":"69.9957","OBJECT_NAME":"STARLINK-3090","APOAPSIS":"483.650","PERIAPSIS":"477.963","REF_FRAME":"TEME","SEMIMAJOR_AXIS":"6858.941","MEAN_ELEMENT_THEORY":"SGP4","BSTAR":"-0.00662090000000","CLASSIFICATION_TYPE":"U","GP_ID":"191400825","ELEMENT_SET_NO":"999","TIME_SYSTEM":"UTC","LAUNCH_DATE":"2021-09-14","OBJECT_ID":"2021-082C","MEAN_MOTION_DOT":"-0.00179020","ARG_OF_PERICENTER":"285.5268","ECCENTRICITY":"0.00041460","SITE":"AFWTR","TLE_LINE1":"1 49132U 21082C   21343.82416292 -.00179020  00000-0 -66209-2 0  9995","REV_AT_EPOCH":"1364","TLE_LINE2":"2 49132  69.9957 245.8982 0004146 285.5268  74.5448 15.28329923 13645","CENTER_NAME":"EARTH","DECAY_DATE":null,"EPOCH":"2021-12-09T19:46:47.676288","PERIOD":"94.220","EPHEMERIS_TYPE":"0"},{"MEAN_MOTION_DOT":"-0.00165238","OBJECT_ID":"2021-082D","LAUNCH_DATE":"2021-09-14","TIME_SYSTEM":"UTC","GP_ID":"191399925","ELEMENT_SET_NO":"999","BSTAR":"-0.00607810000000","CLASSIFICATION_TYPE":"U","EPHEMERIS_TYPE":"0","EPOCH":"2021-12-09T19:45:06.062112","PERIOD":"94.213","DECAY_DATE":null,"SITE":"AFWTR","TLE_LINE1":"1 49133U 21082D   21343.82298683 -.00165238  00000-0 -60781-2 0  9993","TLE_LINE2":"2 49133  69.9978 245.9123 0004104 240.2684 119.8082 15.28446324 13643","CENTER_NAME":"EARTH","REV_AT_EPOCH":"1364","ECCENTRICITY":"0.00041040","ARG_OF_PERICENTER":"240.2684","MEAN_MOTION":"15.28446324","RCS_SIZE":"LARGE","COUNTRY_CODE":"US","MEAN_MOTION_DDOT":"0.0000000000000","RA_OF_ASC_NODE":"245.9123","NORAD_CAT_ID":"49133","FILE":"3236488","MEAN_ELEMENT_THEORY":"SGP4","SEMIMAJOR_AXIS":"6858.593","REF_FRAME":"TEME","APOAPSIS":"483.273","PERIAPSIS":"477.643","INCLINATION":"69.9978","OBJECT_NAME":"STARLINK-3077","OBJECT_TYPE":"PAYLOAD","MEAN_ANOMALY":"119.8082"},{"MEAN_MOTION_DOT":"-0.00181966","LAUNCH_DATE":"2021-09-14","OBJECT_ID":"2021-082E","TIME_SYSTEM":"UTC","GP_ID":"191400464","ELEMENT_SET_NO":"999","BSTAR":"-0.00668990000000","CLASSIFICATION_TYPE":"U","EPHEMERIS_TYPE":"0","EPOCH":"2021-12-09T19:38:31.869024","PERIOD":"94.208","DECAY_DATE":null,"TLE_LINE1":"1 49134U 21082E   21343.81842441 -.00181966  00000-0 -66899-2 0  9992","SITE":"AFWTR","TLE_LINE2":"2 49134  69.9962 245.9087 0004464 290.3402  69.7293 15.28535971 14846","CENTER_NAME":"EARTH","REV_AT_EPOCH":"1484","ECCENTRICITY":"0.00044640","ARG_OF_PERICENTER":"290.3402","MEAN_MOTION":"15.28535971","RCS_SIZE":"LARGE","COUNTRY_CODE":"US","MEAN_MOTION_DDOT":"0.0000000000000","RA_OF_ASC_NODE":"245.9087","NORAD_CAT_ID":"49134","FILE":"3236488","MEAN_ELEMENT_THEORY":"SGP4","SEMIMAJOR_AXIS":"6858.325","REF_FRAME":"TEME","APOAPSIS":"483.252","PERIAPSIS":"477.129","INCLINATION":"69.9962","OBJECT_NAME":"STARLINK-3078","OBJECT_TYPE":"PAYLOAD","MEAN_ANOMALY":"69.7293"},{"ECCENTRICITY":"0.00032830","ARG_OF_PERICENTER":"274.0535","DECAY_DATE":null,"TLE_LINE2":"2 49135  69.9977 242.9224 0003283 274.0535  77.5786 15.69753620  3678","REV_AT_EPOCH":"367","CENTER_NAME":"EARTH","TLE_LINE1":"1 49135U 21082F   21343.91667824 -.00043197  00000-0 -36188-3 0  9996","SITE":"AFWTR","PERIOD":"91.734","EPOCH":"2021-12-09T22:00:00.999936","EPHEMERIS_TYPE":"0","ELEMENT_SET_NO":"999","GP_ID":"191400645","CLASSIFICATION_TYPE":"U","BSTAR":"-0.00036188000000","OBJECT_ID":"2021-082F","LAUNCH_DATE":"2021-09-14","TIME_SYSTEM":"UTC","MEAN_MOTION_DOT":"-0.00043197","OBJECT_TYPE":"PAYLOAD","MEAN_ANOMALY":"77.5786","PERIAPSIS":"357.392","APOAPSIS":"361.816","INCLINATION":"69.9977","OBJECT_NAME":"STARLINK-3073","REF_FRAME":"TEME","MEAN_ELEMENT_THEORY":"SGP4","SEMIMAJOR_AXIS":"6737.739","NORAD_CAT_ID":"49135","FILE":"3236488","RA_OF_ASC_NODE":"242.9224","MEAN_MOTION_DDOT":"0.0000000000000","COUNTRY_CODE":"US","MEAN_MOTION":"15.69753620","RCS_SIZE":"LARGE"},{"TIME_SYSTEM":"UTC","LAUNCH_DATE":"2021-09-14","OBJECT_ID":"2021-082G","MEAN_MOTION_DOT":"-0.00025194","CLASSIFICATION_TYPE":"U","BSTAR":"-0.00020988000000","ELEMENT_SET_NO":"999","GP_ID":"191401184","EPOCH":"2021-12-09T22:00:00.999936","PERIOD":"91.734","EPHEMERIS_TYPE":"0","ARG_OF_PERICENTER":"269.2129","ECCENTRICITY":"0.00033190","TLE_LINE2":"2 49136  69.9984 242.9324 0003319 269.2129  80.1926 15.69752149  3674","CENTER_NAME":"EARTH","REV_AT_EPOCH":"367","TLE_LINE1":"1 49136U 21082G   21343.91667824 -.00025194  00000-0 -20988-3 0  9995","SITE":"AFWTR","DECAY_DATE":null,"COUNTRY_CODE":"US","RCS_SIZE":"LARGE","MEAN_MOTION":"15.69752149","FILE":"3236488","NORAD_CAT_ID":"49136","RA_OF_ASC_NODE":"242.9324","MEAN_MOTION_DDOT":"0.0000000000000","REF_FRAME":"TEME","SEMIMAJOR_AXIS":"6737.743","MEAN_ELEMENT_THEORY":"SGP4","MEAN_ANOMALY":"80.1926","OBJECT_TYPE":"PAYLOAD","OBJECT_NAME":"STARLINK-3084","INCLINATION":"69.9984","PERIAPSIS":"357.372","APOAPSIS":"361.844"}];
